[{"OBJECT_NAME":"KUIPER-00210","OBJECT_ID":"2025-301P","EPOCH":"2026-03-09T22:00:01.999584","MEAN_MOTION":14.81753192,"ECCENTRICITY":0.00020451,"INCLINATION":51.899,"RA_OF_ASC_NODE":72.1231,"ARG_OF_PERICENTER":117.4503,"MEAN_ANOMALY":206.8766,"EPHEMERIS_TYPE":0,"CLASSIFICATION_TYPE":"U","NORAD_CAT_ID":67146,"ELEMENT_SET_NO":999,"REV_AT_EPOCH":580,"BSTAR":0.0025283371,"MEAN_MOTION_DOT":0.00019966,"MEAN_MOTION_DDOT":0},{"OBJECT_NAME":"UNKNOWN","OBJECT_ID":"","EPOCH":"2026-03-06T17:31:58.135008","MEAN_MOTION":14.7114374,"ECCENTRICITY":0.0070129,"INCLINATION":98.8101,"RA_OF_ASC_NODE":173.9349,"ARG_OF_PERICENTER":103.0534,"MEAN_ANOMALY":257.8511,"EPHEMERIS_TYPE":0,"CLASSIFICATION_TYPE":"U","NORAD_CAT_ID":81371,"ELEMENT_SET_NO":999,"REV_AT_EPOCH":65418,"BSTAR":0.0008672,"MEAN_MOTION_DOT":5.488e-5,"MEAN_MOTION_DDOT":0}]
